[{"OBJECT_NAME":"YAOGAN-33 04","OBJECT_ID":"2023-149A","EPOCH":"2026-03-10T00:08:02.588928","MEAN_MOTION":14.58624687,"ECCENTRICITY":0.00010375,"INCLINATION":98.1869,"RA_OF_ASC_NODE":19.7732,"ARG_OF_PERICENTER":50.2829,"MEAN_ANOMALY":309.8461,"EPHEMERIS_TYPE":0,"CLASSIFICATION_TYPE":"U","NORAD_CAT_ID":57958,"ELEMENT_SET_NO":999,"REV_AT_EPOCH":13054,"BSTAR":0.00018482829,"MEAN_MOTION_DOT":8.15e-6,"MEAN_MOTION_DDOT":0},{"OBJECT_NAME":"CZ-6A DEB","OBJECT_ID":"2022-151MV","EPOCH":"2026-03-09T14:56:09.391488","MEAN_MOTION":14.38772961,"ECCENTRICITY":0.0098702,"INCLINATION":98.5838,"RA_OF_ASC_NODE":93.8507,"ARG_OF_PERICENTER":303.7137,"MEAN_ANOMALY":55.4671,"EPHEMERIS_TYPE":0,"CLASSIFICATION_TYPE":"U","NORAD_CAT_ID":54595,"ELEMENT_SET_NO":999,"REV_AT_EPOCH":17363,"BSTAR":0.00041974,"MEAN_MOTION_DOT":1.317e-5,"MEAN_MOTION_DDOT":0}]
